{"fetched_at":"2026-03-29T16:36:15Z","count":15609,"tles":[{"name":"STARLINK-11418 [DTC]","line1":"1 63058U 25035G   26087.87315187  .00213699  00000+0  16236-2 0  9999","line2":"2 63058  42.9980 260.0941 0000753 246.2417 113.8372 15.70881594 64114","category":"Starlink"}]}